{"type": "FeatureCollection", "features": [ {"type": "Feature", "properties": {"norad_id": 33651, "name": "FENGYUN 1C DEB", "group": "fengyun-1c-debris", "lat": 19.898264634996256, "lon": -130.85970883061896, "alt_km": 893.7378458008079, "timestamp": "2025-12-26T16:33:55.857364+00:00", "meta": {"OBJECT_NAME": "FENGYUN 1C DEB", "OBJECT_ID": "1999-025DEL", "EPOCH": "2025-12-24T09:43:13.346976", "MEAN_MOTION": 14.20363757, "ECCENTRICITY": 0.01172412, "INCLINATION": 98.655, "RA_OF_ASC_NODE": 43.7432, "ARG_OF_PERICENTER": 20.4722, "MEAN_ANOMALY": 340.1097, "EPHEMERIS_TYPE": 0, "CLASSIFICATION_TYPE": "U", "NORAD_CAT_ID": 33651, "ELEMENT_SET_NO": 999, "REV_AT_EPOCH": 64437, "BSTAR": 0.00014773014, "MEAN_MOTION_DOT": 2.96e-06, "MEAN_MOTION_DDOT": 0}, "tle": {"line1": "1 33651U 99025DEL 25358.40501559  .00000296  00000+0  14773-3 0  9996", "line2": "2 33651  98.6550  43.7432 0117241  20.4722 340.1097 14.20363757644375"}}, "geometry": {"type": "Point", "coordinates": [-130.85970883061896, 19.898264634996256]}}, {"type": "Feature", "properties": {"norad_id": 33655, "name": "FENGYUN 1C DEB", "group": "fengyun-1c-debris", "lat": 31.649432457197918, "lon": -106.8144882264136, "alt_km": 601.5055081201563, "timestamp": "2025-12-26T16:33:55.857373+00:00", "meta": {"OBJECT_NAME": "FENGYUN 1C DEB", "OBJECT_ID": "1999-025DEQ", "EPOCH": "2025-12-25T15:51:47.177280", "MEAN_MOTION": 14.98228574, "ECCENTRICITY": 0.00462851, "INCLINATION": 98.7992, "RA_OF_ASC_NODE": 66.5471, "ARG_OF_PERICENTER": 316.1929, "MEAN_ANOMALY": 43.5622, "EPHEMERIS_TYPE": 0, "CLASSIFICATION_TYPE": "U", "NORAD_CAT_ID": 33655, "ELEMENT_SET_NO": 999, "REV_AT_EPOCH": 96751, "BSTAR": 0.001860165, "MEAN_MOTION_DOT": 0.00022573, "MEAN_MOTION_DDOT": 0}, "tle": {"line1": "1 33655U 99025DEQ 25359.66096270  .00022573  00000+0  18602-2 0  9994", "line2": "2 33655  98.7992  66.5471 0046285 316.1929  43.5622 14.98228574967513"}}, "geometry": {"type": "Point", "coordinates": [-106.8144882264136, 31.649432457197918]}}, {"type": "Feature", "properties": {"norad_id": 33656, "name": "FENGYUN 1C DEB", "group": "fengyun-1c-debris", "lat": 80.95099388731498, "lon": -115.18774377891926, "alt_km": 821.345950263445, "timestamp": "2025-12-26T16:33:55.857382+00:00", "meta": {"OBJECT_NAME": "FENGYUN 1C DEB", "OBJECT_ID": "1999-025DER", "EPOCH": "2025-12-26T04:19:12.110592", "MEAN_MOTION": 14.22759171, "ECCENTRICITY": 0.00898968, "INCLINATION": 98.5793, "RA_OF_ASC_NODE": 352.893, "ARG_OF_PERICENTER": 352.4674, "MEAN_ANOMALY": 7.5149, "EPHEMERIS_TYPE": 0, "CLASSIFICATION_TYPE": "U", "NORAD_CAT_ID": 33656, "ELEMENT_SET_NO": 999, "REV_AT_EPOCH": 62900, "BSTAR": 0.00044155087, "MEAN_MOTION_DOT": 9.89e-06, "MEAN_MOTION_DDOT": 0}, "tle": {"line1": "1 33656U 99025DER 25360.18000128  .00000989  00000+0  44155-3 0  9991", "line2": "2 33656  98.5793 352.8930 0089896 352.4674   7.5149 14.22759171629009"}}, "geometry": {"type": "Point", "coordinates": [-115.18774377891926, 80.95099388731498]}}, {"type": "Feature", "properties": {"norad_id": 33658, "name": "FENGYUN 1C DEB", "group": "fengyun-1c-debris", "lat": 13.529933723296752, "lon": 151.3158860809663, "alt_km": 1164.321435648134, "timestamp": "2025-12-26T16:33:55.857392+00:00", "meta": {"OBJECT_NAME": "FENGYUN 1C DEB", "OBJECT_ID": "1999-025DET", "EPOCH": "2025-12-24T16:54:27.352800", "MEAN_MOTION": 13.6242826, "ECCENTRICITY": 0.02819843, "INCLINATION": 99.5641, "RA_OF_ASC_NODE": 151.691, "ARG_OF_PERICENTER": 150.9506, "MEAN_ANOMALY": 210.7661, "EPHEMERIS_TYPE": 0, "CLASSIFICATION_TYPE": "U", "NORAD_CAT_ID": 33658, "ELEMENT_SET_NO": 999, "REV_AT_EPOCH": 58302, "BSTAR": 0.0026956727, "MEAN_MOTION_DOT": 2.689e-05, "MEAN_MOTION_DDOT": 0}, "tle": {"line1": "1 33658U 99025DET 25358.70448325  .00002689  00000+0  26957-2 0  9991", "line2": "2 33658  99.5641 151.6910 0281984 150.9506 210.7661 13.62428260583027"}}, "geometry": {"type": "Point", "coordinates": [151.3158860809663, 13.529933723296752]}}, {"type": "Feature", "properties": {"norad_id": 33660, "name": "FENGYUN 1C DEB", "group": "fengyun-1c-debris", "lat": 1.0612739223899597, "lon": -89.20617185705952, "alt_km": 996.9333406730302, "timestamp": "2025-12-26T16:33:55.857402+00:00", "meta": {"OBJECT_NAME": "FENGYUN 1C DEB", "OBJECT_ID": "1999-025DEV", "EPOCH": "2025-12-25T00:57:30.028896", "MEAN_MOTION": 13.91785167, "ECCENTRICITY": 0.01098948, "INCLINATION": 98.6573, "RA_OF_ASC_NODE": 269.4147, "ARG_OF_PERICENTER": 211.9347, "MEAN_ANOMALY": 164.5297, "EPHEMERIS_TYPE": 0, "CLASSIFICATION_TYPE": "U", "NORAD_CAT_ID": 33660, "ELEMENT_SET_NO": 999, "REV_AT_EPOCH": 91235, "BSTAR": 0.00050571294, "MEAN_MOTION_DOT": 6.35e-06, "MEAN_MOTION_DDOT": 0}, "tle": {"line1": "1 33660U 99025DEV 25359.03993089  .00000635  00000+0  50571-3 0  9992", "line2": "2 33660  98.6573 269.4147 0109894 211.9347 164.5297 13.91785167912351"}}, "geometry": {"type": "Point", "coordinates": [-89.20617185705952, 1.0612739223899597]}}, {"type": "Feature", "properties": {"norad_id": 33663, "name": "FENGYUN 1C DEB", "group": "fengyun-1c-debris", "lat": 23.20033578293735, "lon": -10.9111558818721, "alt_km": 649.1048555442685, "timestamp": "2025-12-26T16:33:55.857411+00:00", "meta": {"OBJECT_NAME": "FENGYUN 1C DEB", "OBJECT_ID": "1999-025DEY", "EPOCH": "2025-12-19T16:59:12.916032", "MEAN_MOTION": 14.62420934, "ECCENTRICITY": 0.0080658, "INCLINATION": 98.8853, "RA_OF_ASC_NODE": 345.4244, "ARG_OF_PERICENTER": 352.5038, "MEAN_ANOMALY": 7.4949, "EPHEMERIS_TYPE": 0, "CLASSIFICATION_TYPE": "U", "NORAD_CAT_ID": 33663, "ELEMENT_SET_NO": 999, "REV_AT_EPOCH": 64304, "BSTAR": 0.0040155279, "MEAN_MOTION_DOT": 0.00021295, "MEAN_MOTION_DDOT": 0}, "tle": {"line1": "1 33663U 99025DEY 25353.70778838  .00021295  00000+0  40155-2 0  9997", "line2": "2 33663  98.8853 345.4244 0080658 352.5038   7.4949 14.62420934643048"}}, "geometry": {"type": "Point", "coordinates": [-10.9111558818721, 23.20033578293735]}}, {"type": "Feature", "properties": {"norad_id": 33664, "name": "FENGYUN 1C DEB", "group": "fengyun-1c-debris", "lat": -36.45414389128472, "lon": -37.64173410764651, "alt_km": 981.8231787882132, "timestamp": "2025-12-26T16:33:55.857419+00:00", "meta": {"OBJECT_NAME": "FENGYUN 1C DEB", "OBJECT_ID": "1999-025DEZ", "EPOCH": "2025-12-23T20:49:41.826144", "MEAN_MOTION": 14.04001082, "ECCENTRICITY": 0.0163596, "INCLINATION": 98.7022, "RA_OF_ASC_NODE": 146.1506, "ARG_OF_PERICENTER": 8.92, "MEAN_ANOMALY": 351.4814, "EPHEMERIS_TYPE": 0, "CLASSIFICATION_TYPE": "U", "NORAD_CAT_ID": 33664, "ELEMENT_SET_NO": 999, "REV_AT_EPOCH": 90895, "BSTAR": 0.00020272, "MEAN_MOTION_DOT": 3.19e-06, "MEAN_MOTION_DDOT": 0}, "tle": {"line1": "1 33664U 99025DEZ 25357.86784521  .00000319  00000+0  20272-3 0  9998", "line2": "2 33664  98.7022 146.1506 0163596   8.9200 351.4814 14.04001082908951"}}, "geometry": {"type": "Point", "coordinates": [-37.64173410764651, -36.45414389128472]}}, {"type": "Feature", "properties": {"norad_id": 33665, "name": "FENGYUN 1C DEB", "group": "fengyun-1c-debris", "lat": -50.0442679246112, "lon": 129.0835172010122, "alt_km": 954.5735267347254, "timestamp": "2025-12-26T16:33:55.857428+00:00", "meta": {"OBJECT_NAME": "FENGYUN 1C DEB", "OBJECT_ID": "1999-025DFA", "EPOCH": "2025-12-23T13:31:59.080800", "MEAN_MOTION": 14.03682901, "ECCENTRICITY": 0.04552643, "INCLINATION": 99.0215, "RA_OF_ASC_NODE": 115.0384, "ARG_OF_PERICENTER": 62.0717, "MEAN_ANOMALY": 302.5771, "EPHEMERIS_TYPE": 0, "CLASSIFICATION_TYPE": "U", "NORAD_CAT_ID": 33665, "ELEMENT_SET_NO": 999, "REV_AT_EPOCH": 92743, "BSTAR": 0.00054568247, "MEAN_MOTION_DOT": 2.127e-05, "MEAN_MOTION_DDOT": 0}, "tle": {"line1": "1 33665U 99025DFA 25357.56387825  .00002127  00000+0  54568-3 0  9996", "line2": "2 33665  99.0215 115.0384 0455264  62.0717 302.5771 14.03682901927436"}}, "geometry": {"type": "Point", "coordinates": [129.0835172010122, -50.0442679246112]}}, {"type": "Feature", "properties": {"norad_id": 33673, "name": "FENGYUN 1C DEB", "group": "fengyun-1c-debris", "lat": -41.438022389857196, "lon": -140.66895273581568, "alt_km": 851.3735727271669, "timestamp": "2025-12-26T16:33:55.857437+00:00", "meta": {"OBJECT_NAME": "FENGYUN 1C DEB", "OBJECT_ID": "1999-025DFJ", "EPOCH": "2025-12-25T08:50:23.280000", "MEAN_MOTION": 13.95552068, "ECCENTRICITY": 0.0108127, "INCLINATION": 99.3427, "RA_OF_ASC_NODE": 46.3479, "ARG_OF_PERICENTER": 189.9927, "MEAN_ANOMALY": 233.6688, "EPHEMERIS_TYPE": 0, "CLASSIFICATION_TYPE": "U", "NORAD_CAT_ID": 33673, "ELEMENT_SET_NO": 999, "REV_AT_EPOCH": 90078, "BSTAR": 0.00057668, "MEAN_MOTION_DOT": 7.77e-06, "MEAN_MOTION_DDOT": 0}, "tle": {"line1": "1 33673U 99025DFJ 25359.36832500  .00000777  00000+0  57668-3 0  9993", "line2": "2 33673  99.3427  46.3479 0108127 189.9927 233.6688 13.95552068900789"}}, "geometry": {"type": "Point", "coordinates": [-140.66895273581568, -41.438022389857196]}}, {"type": "Feature", "properties": {"norad_id": 33674, "name": "FENGYUN 1C DEB", "group": "fengyun-1c-debris", "lat": -64.9188653461987, "lon": -149.5566089551239, "alt_km": 867.3165900729027, "timestamp": "2025-12-26T16:33:55.857447+00:00", "meta": {"OBJECT_NAME": "FENGYUN 1C DEB", "OBJECT_ID": "1999-025DFK", "EPOCH": "2025-12-23T14:07:44.734944", "MEAN_MOTION": 13.76931744, "ECCENTRICITY": 0.02119354, "INCLINATION": 98.6047, "RA_OF_ASC_NODE": 46.5095, "ARG_OF_PERICENTER": 211.1575, "MEAN_ANOMALY": 147.687, "EPHEMERIS_TYPE": 0, "CLASSIFICATION_TYPE": "U", "NORAD_CAT_ID": 33674, "ELEMENT_SET_NO": 999, "REV_AT_EPOCH": 88514, "BSTAR": 0.0017725878, "MEAN_MOTION_DOT": 2.024e-05, "MEAN_MOTION_DDOT": 0}, "tle": {"line1": "1 33674U 99025DFK 25357.58871221  .00002024  00000+0  17726-2 0  9996", "line2": "2 33674  98.6047  46.5095 0211935 211.1575 147.6870 13.76931744885145"}}, "geometry": {"type": "Point", "coordinates": [-149.5566089551239, -64.9188653461987]}}]}